NORAD_CAT_ID,OBJECT_NAME,OBJECT_TYPE,EPOCH,MEAN_MOTION,ECCENTRICITY,INCLINATION,RA_OF_ASC_NODE,ARG_OF_PERICENTER,MEAN_ANOMALY,BSTAR,MEAN_MOTION_DOT,MEAN_MOTION_DDOT,TLE_LINE0,TLE_LINE1,TLE_LINE2,SEMIMAJOR_AXIS,PERIOD,APOGEE,PERIGEE,DECAYED
51808.0,STARLINK-3609,PAYLOAD,2024-03-21 21:55:13,15.08843371,0.0001161,53.2168,321.3448,103.126,256.9862,0.00059054,9.124e-05,0.0,0 STARLINK-3609,1 51808U 22017AS  24081.91335160  .00009124  00000-0  59054-3 0  9999,2 51808  53.2168 321.3448 0001161 103.1260 256.9862 15.08843371115607,6917.87,95.437,540.538,538.932,0.0
51808.0,STARLINK-3609,PAYLOAD,2024-03-22 01:05:59,15.08856857,0.0001215,53.2172,320.7476,80.6399,279.473,0.001244,0.00019575,0.0,0 STARLINK-3609,1 51808U 22017AS  24082.04583325  .00019575  00000-0  12440-2 0  9990,2 51808  53.2172 320.7476 0001215  80.6399 279.4730 15.08856857115728,6917.829,95.436,540.534,538.853,0.0
51808.0,STARLINK-3609,PAYLOAD,2024-03-22 20:10:37,15.0884336,7.54e-05,53.2164,317.1815,56.0181,304.0883,0.00027801,4.14e-05,0.0,0 STARLINK-3609,1 51808U 22017AS  24082.84071330  .00004140  00000-0  27801-3 0  9996,2 51808  53.2164 317.1815 0000754  56.0181 304.0883 15.08843360115841,6917.87,95.437,540.257,539.214,0.0
51808.0,STARLINK-3609,PAYLOAD,2024-03-22 21:46:00,15.0884927,0.0001119,53.2163,316.8815,115.5288,244.582,0.00048289,7.408e-05,0.0,0 STARLINK-3609,1 51808U 22017AS  24082.90695140  .00007408  00000-0  48289-3 0  9997,2 51808  53.2163 316.8815 0001119 115.5288 244.5820 15.08849270115756,6917.852,95.437,540.491,538.943,0.0
51808.0,STARLINK-3609,PAYLOAD,2024-03-23 21:36:47,15.08841399,0.0001306,53.2162,312.4221,102.7373,257.3765,0.00023034,3.38e-05,0.0,0 STARLINK-3609,1 51808U 22017AS  24083.90055506  .00003380  00000-0  23034-3 0  9990,2 51808  53.2162 312.4221 0001306 102.7373 257.3765 15.08841399116002,6917.876,95.437,540.645,538.838,0.0
51808.0,STARLINK-3609,PAYLOAD,2024-03-24 08:44:29,15.08854089,0.0001432,53.216,310.3396,101.1673,258.948,0.00045745,7.003e-05,0.0,0 STARLINK-3609,1 51808U 22017AS  24084.36423019  .00007003  00000-0  45745-3 0  9998,2 51808  53.2160 310.3396 0001432 101.1673 258.9480 15.08854089116074,6917.837,95.437,540.693,538.712,0.0
51808.0,STARLINK-3609,PAYLOAD,2024-03-24 15:06:02,15.08851845,0.000291,53.2163,309.1509,89.59,270.5425,0.00046225,7.079e-05,0.0,0 STARLINK-3609,1 51808U 22017AS  24084.62919662  .00007079  00000-0  46225-3 0  9998,2 51808  53.2163 309.1509 0002910  89.5900 270.5425 15.08851845116013,6917.844,95.437,541.722,537.696,0.0
51808.0,STARLINK-3609,PAYLOAD,2024-03-24 21:27:35,15.0884699,0.0001319,53.2158,307.9605,87.7063,272.408,0.00046417,7.108e-05,0.0,0 STARLINK-3609,1 51808U 22017AS  24084.89415933  .00007108  00000-0  46417-3 0  9995,2 51808  53.2158 307.9605 0001319  87.7063 272.4080 15.08846990116150,6917.859,95.437,540.636,538.812,0.0
51808.0,STARLINK-3609,PAYLOAD,2024-03-25 21:18:22,15.08850859,0.0001344,53.2161,303.4982,77.8463,282.2679,0.00078853,0.00012287,0.0,0 STARLINK-3609,1 51808U 22017AS  24085.88775965  .00012287  00000-0  78853-3 0  9992,2 51808  53.2161 303.4982 0001344  77.8463 282.2679 15.08850859116304,6917.847,95.437,540.642,538.782,0.0
51808.0,STARLINK-3609,PAYLOAD,2024-03-26 06:50:40,15.08864515,0.0001385,53.2173,301.7154,79.9326,280.1823,0.0009245,0.00014466,0.0,0 STARLINK-3609,1 51808U 22017AS  24086.28519432  .00014466  00000-0  92450-3 0  9992,2 51808  53.2173 301.7154 0001385  79.9326 280.1823 15.08864515116262,6917.805,95.436,540.629,538.712,0.0
51808.0,STARLINK-3609,PAYLOAD,2024-03-26 21:09:09,15.08832523,0.0001345,53.2167,299.0423,73.3333,286.7807,5.5138e-06,-2e-06,0.0,0 STARLINK-3609,1 51808U 22017AS  24086.88136078 -.00000200  00000-0  55138-5 0  9995,2 51808  53.2167 299.0423 0001345  73.3333 286.7807 15.08832523116454,6917.903,95.438,540.699,538.838,0.0
51808.0,STARLINK-3609,PAYLOAD,2024-03-27 06:41:28,15.08844047,0.0001452,53.2167,297.2563,69.8885,290.2263,0.00080111,0.00012486,0.0,0 STARLINK-3609,1 51808U 22017AS  24087.27880115  .00012486  00000-0  80111-3 0  9992,2 51808  53.2167 297.2563 0001452  69.8885 290.2263 15.08844047116517,6917.868,95.437,540.737,538.729,0.0
51808.0,STARLINK-3609,PAYLOAD,2024-03-27 20:59:56,15.08838114,0.0001304,53.2166,294.5818,79.9761,280.1378,6.9847e-05,8.24e-06,0.0,0 STARLINK-3609,1 51808U 22017AS  24087.87496520  .00000824  00000-0  69847-4 0  9998,2 51808  53.2166 294.5818 0001304  79.9761 280.1378 15.08838114116603,6917.886,95.438,540.653,538.849,0.0
51808.0,STARLINK-3609,PAYLOAD,2024-03-28 06:32:15,15.08850565,0.0001407,53.2174,292.7975,81.527,278.5882,0.00042339,6.459e-05,0.0,0 STARLINK-3609,1 51808U 22017AS  24088.27240119  .00006459  00000-0  42339-3 0  9990,2 51808  53.2174 292.7975 0001407  81.5270 278.5882 15.08850565116665,6917.848,95.437,540.686,538.74,0.0
51808.0,STARLINK-3609,PAYLOAD,2024-03-28 22:26:06,15.08843329,0.0001452,53.2162,289.8211,76.9668,283.1486,0.00027143,4.035e-05,0.0,0 STARLINK-3609,1 51808U 22017AS  24088.93480318  .00004035  00000-0  27143-3 0  9994,2 51808  53.2162 289.8211 0001452  76.9668 283.1486 15.08843329116663,6917.87,95.437,540.74,538.731,0.0
51808.0,STARLINK-3609,PAYLOAD,2024-03-29 06:23:02,15.08850149,0.0001684,53.2163,288.335,83.1509,276.9674,0.00045907,7.028e-05,0.0,0 STARLINK-3609,1 51808U 22017AS  24089.26600228  .00007028  00000-0  45907-3 0  9998,2 51808  53.2163 288.3350 0001684  83.1509 276.9674 15.08850149116716,6917.849,95.437,540.879,538.549,0.0
51808.0,STARLINK-3609,PAYLOAD,2024-03-29 22:16:53,15.08845063,4.67e-05,53.2163,285.3622,95.0041,265.1004,0.0002566,3.799e-05,0.0,0 STARLINK-3609,1 51808U 22017AS  24089.92839764  .00003799  00000-0  25660-3 0  9995,2 51808  53.2163 285.3622 0000467  95.0041 265.1004 15.08845063116813,6917.865,95.437,540.053,539.407,0.0
51808.0,STARLINK-3609,PAYLOAD,2024-03-30 12:35:22,15.08854929,0.0002527,53.209,282.6836,85.4826,274.6455,0.00071668,0.00011141,0.0,0 STARLINK-3609,1 51808U 22017AS  24090.52456352  .00011141  00000-0  71668-3 0  9990,2 51808  53.2090 282.6836 0002527  85.4826 274.6455 15.08854929117000,6917.835,95.437,541.448,537.952,0.0
51808.0,STARLINK-3609,PAYLOAD,2024-03-31 12:26:09,15.08843663,0.000216,53.2174,278.2268,76.8492,283.2741,0.00038465,5.839e-05,0.0,0 STARLINK-3609,1 51808U 22017AS  24091.51816569  .00005839  00000-0  38465-3 0  9995,2 51808  53.2174 278.2268 0002160  76.8492 283.2741 15.08843663117152,6917.869,95.437,541.228,538.24,0.0
51808.0,STARLINK-3609,PAYLOAD,2024-03-31 18:47:41,15.08847817,0.0001979,53.2159,277.0343,91.8889,268.233,0.00024459,3.607e-05,0.0,0 STARLINK-3609,1 51808U 22017AS  24091.78312341  .00003607  00000-0  24459-3 0  9992,2 51808  53.2159 277.0343 0001979  91.8889 268.2330 15.08847817117095,6917.856,95.437,541.091,538.352,0.0
51808.0,STARLINK-3609,PAYLOAD,2024-04-01 12:16:56,15.08842694,0.0001537,53.2156,273.7656,85.9991,274.1177,0.00022863,3.353e-05,0.0,0 STARLINK-3609,1 51808U 22017AS  24092.51176444  .00003353  00000-0  22863-3 0  9991,2 51808  53.2156 273.7656 0001537  85.9991 274.1177 15.08842694117307,6917.872,95.437,540.8,538.674,0.0
51808.0,STARLINK-3609,PAYLOAD,2024-04-01 18:38:29,15.08833393,0.0001425,53.2188,272.5763,91.2475,268.868,0.00030028,4.493e-05,0.0,0 STARLINK-3609,1 51808U 22017AS  24092.77673009  .00004493  00000-0  30028-3 0  9996,2 51808  53.2188 272.5763 0001425  91.2475 268.8680 15.08833393117340,6917.901,95.438,540.751,538.78,0.0
51808.0,STARLINK-3609,PAYLOAD,2024-04-01 21:49:14,15.08848709,0.0001357,53.2185,271.9808,95.6421,264.4726,-0.0001433,-2.568e-05,0.0,0 STARLINK-3609,1 51808U 22017AS  24092.90919940 -.00002568  00000-0 -14330-3 0  9999,2 51808  53.2185 271.9808 0001357  95.6421 264.4726 15.08848709117365,6917.854,95.437,540.658,538.78,0.0
51808.0,STARLINK-3609,PAYLOAD,2024-04-02 12:07:43,15.0883618,0.0001379,53.2182,269.3043,90.8529,269.2621,6.7165e-05,7.81e-06,0.0,0 STARLINK-3609,1 51808U 22017AS  24093.50536813  .00000781  00000-0  67165-4 0  9998,2 51808  53.2182 269.3043 0001379  90.8529 269.2621 15.08836180117451,6917.892,95.438,540.711,538.803,0.0
51808.0,STARLINK-3609,PAYLOAD,2024-04-02 18:29:16,15.08834936,0.0001332,53.2192,268.1142,92.6021,267.5124,6.3231e-05,7.18e-06,0.0,0 STARLINK-3609,1 51808U 22017AS  24093.77033016  .00000718  00000-0  63231-4 0  9994,2 51808  53.2192 268.1142 0001332  92.6021 267.5124 15.08834936117394,6917.896,95.438,540.682,538.839,0.0
51808.0,STARLINK-3609,PAYLOAD,2024-04-03 11:58:31,15.08833518,0.0001342,53.2194,264.8465,98.6085,261.5059,9.2538e-05,1.185e-05,0.0,0 STARLINK-3609,1 51808U 22017AS  24094.49897145  .00001185  00000-0  92538-4 0  9996,2 51808  53.2194 264.8465 0001342  98.6085 261.5059 15.08833518117503,6917.9,95.438,540.694,538.837,0.0
51808.0,STARLINK-3609,PAYLOAD,2024-04-03 18:20:03,15.08835629,0.0001327,53.2193,263.6574,98.9966,261.1177,9.5401e-05,1.231e-05,0.0,0 STARLINK-3609,1 51808U 22017AS  24094.76393098  .00001231  00000-0  95401-4 0  9998,2 51808  53.2193 263.6574 0001327  98.9966 261.1177 15.08835629117641,6917.894,95.438,540.677,538.841,0.0
51808.0,STARLINK-3609,PAYLOAD,2024-04-03 21:30:49,15.08838404,0.0001356,53.2187,263.0612,96.3086,263.8061,0.00011729,1.579e-05,0.0,0 STARLINK-3609,1 51808U 22017AS  24094.89640923  .00001579  00000-0  11729-3 0  9999,2 51808  53.2187 263.0612 0001356  96.3086 263.8061 15.08838404117564,6917.885,95.438,540.688,538.812,0.0
51808.0,STARLINK-3609,PAYLOAD,2024-04-04 15:00:04,15.08832537,0.0001351,53.2199,259.7902,95.2395,264.8751,9.3264e-05,1.196e-05,0.0,0 STARLINK-3609,1 51808U 22017AS  24095.62505428  .00001196  00000-0  93264-4 0  9991,2 51808  53.2199 259.7902 0001351  95.2395 264.8751 15.08832537117677,6917.903,95.438,540.703,538.834,0.0
51808.0,STARLINK-3609,PAYLOAD,2024-04-04 18:10:50,15.08835256,0.0001349,53.2197,259.1962,94.6881,265.4265,0.00011293,1.51e-05,0.0,0 STARLINK-3609,1 51808U 22017AS  24095.75753237  .00001510  00000-0  11293-3 0  9999,2 51808  53.2197 259.1962 0001349  94.6881 265.4265 15.08835256117695,6917.895,95.438,540.693,538.827,0.0
